{
  "type": "FeatureCollection",
  "features": [
    {
      "type": "Feature",
      "properties": {
        "norad_id": 33972,
        "name": "COSMOS 2251 DEB",
        "group": "cosmos-2251-debris",
        "lat": 73.09986690131265,
        "lon": -72.42709255739095,
        "alt_km": 793.7900340180668,
        "timestamp": "2025-12-19T08:58:49.730254+00:00",
        "meta_object_name": "COSMOS 2251 DEB",
        "meta_object_id": "1993-036FF",
        "meta_epoch": "2025-12-17T23:49:01.144704",
        "meta_mean_motion": 14.36260752,
        "meta_eccentricity": 0.01235388,
        "meta_inclination": 73.9935,
        "meta_ra_of_asc_node": 180.9905,
        "meta_arg_of_pericenter": 347.5928,
        "meta_mean_anomaly": 164.6661,
        "meta_ephemeris_type": 0,
        "meta_classification_type": "U",
        "meta_norad_cat_id": 33972,
        "meta_element_set_no": 999,
        "meta_rev_at_epoch": 87149,
        "meta_bstar": 0.0009239253,
        "meta_mean_motion_dot": 2.917e-05,
        "meta_mean_motion_ddot": 0,
        "tle_line1": "1 33972U 93036FF  25351.99237436  .00002917  00000+0  92393-3 0  9991",
        "tle_line2": "2 33972  73.9935 180.9905 0123538 347.5928 164.6661 14.36260752871499"
      },
      "geometry": {
        "type": "Point",
        "coordinates": [
          -72.42709255739095,
          73.09986690131265
        ]
      }
    },
    {
      "type": "Feature",
      "properties": {
        "norad_id": 33973,
        "name": "COSMOS 2251 DEB",
        "group": "cosmos-2251-debris",
        "lat": 59.15238001666324,
        "lon": 119.20162054161396,
        "alt_km": 765.3511347032763,
        "timestamp": "2025-12-19T08:58:49.730264+00:00",
        "meta_object_name": "COSMOS 2251 DEB",
        "meta_object_id": "1993-036FG",
        "meta_epoch": "2025-12-18T14:56:57.974208",
        "meta_mean_motion": 14.4539705,
        "meta_eccentricity": 0.00473892,
        "meta_inclination": 74.0087,
        "meta_ra_of_asc_node": 91.9086,
        "meta_arg_of_pericenter": 269.2619,
        "meta_mean_anomaly": 206.1103,
        "meta_ephemeris_type": 0,
        "meta_classification_type": "U",
        "meta_norad_cat_id": 33973,
        "meta_element_set_no": 999,
        "meta_rev_at_epoch": 88685,
        "meta_bstar": 0.00011417305,
        "meta_mean_motion_dot": 3.79e-06,
        "meta_mean_motion_ddot": 0,
        "tle_line1": "1 33973U 93036FG  25352.62289322  .00000379  00000+0  11417-3 0  9992",
        "tle_line2": "2 33973  74.0087  91.9086 0047389 269.2619 206.1103 14.45397050886858"
      },
      "geometry": {
        "type": "Point",
        "coordinates": [
          119.20162054161396,
          59.15238001666324
        ]
      }
    },
    {
      "type": "Feature",
      "properties": {
        "norad_id": 33975,
        "name": "COSMOS 2251 DEB",
        "group": "cosmos-2251-debris",
        "lat": 13.684261785697643,
        "lon": 76.84969686529469,
        "alt_km": 1029.2102306775078,
        "timestamp": "2025-12-19T08:58:49.730274+00:00",
        "meta_object_name": "COSMOS 2251 DEB",
        "meta_object_id": "1993-036FJ",
        "meta_epoch": "2025-12-18T15:46:01.286112",
        "meta_mean_motion": 14.00536538,
        "meta_eccentricity": 0.0191139,
        "meta_inclination": 73.8018,
        "meta_ra_of_asc_node": 74.0515,
        "meta_arg_of_pericenter": 206.0376,
        "meta_mean_anomaly": 153.1048,
        "meta_ephemeris_type": 0,
        "meta_classification_type": "U",
        "meta_norad_cat_id": 33975,
        "meta_element_set_no": 999,
        "meta_rev_at_epoch": 85912,
        "meta_bstar": 0.00041952274,
        "meta_mean_motion_dot": 7.04e-06,
        "meta_mean_motion_ddot": 0,
        "tle_line1": "1 33975U 93036FJ  25352.65695933  .00000704  00000+0  41952-3 0  9995",
        "tle_line2": "2 33975  73.8018  74.0515 0191139 206.0376 153.1048 14.00536538859128"
      },
      "geometry": {
        "type": "Point",
        "coordinates": [
          76.84969686529469,
          13.684261785697643
        ]
      }
    },
    {
      "type": "Feature",
      "properties": {
        "norad_id": 33980,
        "name": "COSMOS 2251 DEB",
        "group": "cosmos-2251-debris",
        "lat": 21.975579715219602,
        "lon": -139.88774575079418,
        "alt_km": 680.1166098419089,
        "timestamp": "2025-12-19T08:58:49.730284+00:00",
        "meta_object_name": "COSMOS 2251 DEB",
        "meta_object_id": "1993-036FP",
        "meta_epoch": "2025-12-18T14:51:09.810720",
        "meta_mean_motion": 14.58684371,
        "meta_eccentricity": 0.00283481,
        "meta_inclination": 74.0214,
        "meta_ra_of_asc_node": 48.1908,
        "meta_arg_of_pericenter": 192.3406,
        "meta_mean_anomaly": 320.049,
        "meta_ephemeris_type": 0,
        "meta_classification_type": "U",
        "meta_norad_cat_id": 33980,
        "meta_element_set_no": 999,
        "meta_rev_at_epoch": 88880,
        "meta_bstar": 0.00044200045,
        "meta_mean_motion_dot": 2.043e-05,
        "meta_mean_motion_ddot": 0,
        "tle_line1": "1 33980U 93036FP  25352.61886355  .00002043  00000+0  44200-3 0  9994",
        "tle_line2": "2 33980  74.0214  48.1908 0028348 192.3406 320.0490 14.58684371888800"
      },
      "geometry": {
        "type": "Point",
        "coordinates": [
          -139.88774575079418,
          21.975579715219602
        ]
      }
    },
    {
      "type": "Feature",
      "properties": {
        "norad_id": 33982,
        "name": "COSMOS 2251 DEB",
        "group": "cosmos-2251-debris",
        "lat": 46.58631305118391,
        "lon": 4.867010387940978,
        "alt_km": 637.6887420545672,
        "timestamp": "2025-12-19T08:58:49.730294+00:00",
        "meta_object_name": "COSMOS 2251 DEB",
        "meta_object_id": "1993-036FR",
        "meta_epoch": "2025-12-18T10:25:15.223872",
        "meta_mean_motion": 14.60234804,
        "meta_eccentricity": 0.00752449,
        "meta_inclination": 74.0705,
        "meta_ra_of_asc_node": 349.0869,
        "meta_arg_of_pericenter": 31.9425,
        "meta_mean_anomaly": 117.5988,
        "meta_ephemeris_type": 0,
        "meta_classification_type": "U",
        "meta_norad_cat_id": 33982,
        "meta_element_set_no": 999,
        "meta_rev_at_epoch": 89242,
        "meta_bstar": 0.00037606811,
        "meta_mean_motion_dot": 1.857e-05,
        "meta_mean_motion_ddot": 0,
        "tle_line1": "1 33982U 93036FR  25352.43420398  .00001857  00000+0  37607-3 0  9992",
        "tle_line2": "2 33982  74.0705 349.0869 0075244  31.9425 117.5988 14.60234804892421"
      },
      "geometry": {
        "type": "Point",
        "coordinates": [
          4.867010387940978,
          46.58631305118391
        ]
      }
    },
    {
      "type": "Feature",
      "properties": {
        "norad_id": 33983,
        "name": "COSMOS 2251 DEB",
        "group": "cosmos-2251-debris",
        "lat": 62.27333155316853,
        "lon": -78.38117498483182,
        "alt_km": 725.3122604044684,
        "timestamp": "2025-12-19T08:58:49.730304+00:00",
        "meta_object_name": "COSMOS 2251 DEB",
        "meta_object_id": "1993-036FS",
        "meta_epoch": "2025-12-18T21:26:18.394080",
        "meta_mean_motion": 14.5069475,
        "meta_eccentricity": 0.00212143,
        "meta_inclination": 74.0492,
        "meta_ra_of_asc_node": 135.4878,
        "meta_arg_of_pericenter": 237.7375,
        "meta_mean_anomaly": 244.8271,
        "meta_ephemeris_type": 0,
        "meta_classification_type": "U",
        "meta_norad_cat_id": 33983,
        "meta_element_set_no": 999,
        "meta_rev_at_epoch": 88718,
        "meta_bstar": 0.00041354395,
        "meta_mean_motion_dot": 1.602e-05,
        "meta_mean_motion_ddot": 0,
        "tle_line1": "1 33983U 93036FS  25352.89326845  .00001602  00000+0  41354-3 0  9997",
        "tle_line2": "2 33983  74.0492 135.4878 0021214 237.7375 244.8271 14.50694750887185"
      },
      "geometry": {
        "type": "Point",
        "coordinates": [
          -78.38117498483182,
          62.27333155316853
        ]
      }
    },
    {
      "type": "Feature",
      "properties": {
        "norad_id": 33984,
        "name": "COSMOS 2251 DEB",
        "group": "cosmos-2251-debris",
        "lat": -51.18181995270571,
        "lon": 175.17216261322355,
        "alt_km": 671.9123960413326,
        "timestamp": "2025-12-19T08:58:49.730314+00:00",
        "meta_object_name": "COSMOS 2251 DEB",
        "meta_object_id": "1993-036FT",
        "meta_epoch": "2025-12-18T09:40:43.665888",
        "meta_mean_motion": 14.66411414,
        "meta_eccentricity": 0.00227873,
        "meta_inclination": 74.0089,
        "meta_ra_of_asc_node": 336.1647,
        "meta_arg_of_pericenter": 172.6785,
        "meta_mean_anomaly": 337.7874,
        "meta_ephemeris_type": 0,
        "meta_classification_type": "U",
        "meta_norad_cat_id": 33984,
        "meta_element_set_no": 999,
        "meta_rev_at_epoch": 89149,
        "meta_bstar": 0.00066476657,
        "meta_mean_motion_dot": 3.661e-05,
        "meta_mean_motion_ddot": 0,
        "tle_line1": "1 33984U 93036FT  25352.40328317  .00003661  00000+0  66477-3 0  9991",
        "tle_line2": "2 33984  74.0089 336.1647 0022787 172.6785 337.7874 14.66411414891491"
      },
      "geometry": {
        "type": "Point",
        "coordinates": [
          175.17216261322355,
          -51.18181995270571
        ]
      }
    }
  ]
}